[{"OBJECT_NAME":"STARLINK-34655","OBJECT_ID":"2025-161N","EPOCH":"2026-03-09T21:03:22.419648","MEAN_MOTION":15.3022114,"ECCENTRICITY":0.00034604,"INCLINATION":53.1602,"RA_OF_ASC_NODE":293.6767,"ARG_OF_PERICENTER":168.0698,"MEAN_ANOMALY":192.0386,"EPHEMERIS_TYPE":0,"CLASSIFICATION_TYPE":"U","NORAD_CAT_ID":65027,"ELEMENT_SET_NO":999,"REV_AT_EPOCH":3535,"BSTAR":0.0011161464,"MEAN_MOTION_DOT":0.00032869,"MEAN_MOTION_DDOT":0},{"OBJECT_NAME":"SL-3 R\/B","OBJECT_ID":"1981-065B","EPOCH":"2026-03-09T21:58:16.284000","MEAN_MOTION":15.33300883,"ECCENTRICITY":0.00117648,"INCLINATION":97.6337,"RA_OF_ASC_NODE":111.1786,"ARG_OF_PERICENTER":10.529,"MEAN_ANOMALY":349.6196,"EPHEMERIS_TYPE":0,"CLASSIFICATION_TYPE":"U","NORAD_CAT_ID":12586,"ELEMENT_SET_NO":999,"REV_AT_EPOCH":43499,"BSTAR":0.00030084921,"MEAN_MOTION_DOT":9.62e-5,"MEAN_MOTION_DDOT":0}]
